start=new Date('2021-09-14T00:00:00.000Z').valueOf();
sats=[{"ECCENTRICITY":"0.00040530","TLE_LINE2":"2 47629  53.0428 138.4195 0004053   8.9582 146.8014 15.73218278  3671","MEAN_MOTION":"15.73218278","APOAPSIS":"352.435","MEAN_ELEMENT_THEORY":"SGP4","DECAY_DATE":null,"EPOCH":"2021-09-14T00:00:00.999648","RCS_SIZE":"LARGE","REV_AT_EPOCH":"367","TIME_SYSTEM":"UTC","OBJECT_NAME":"STARLINK-1974","GP_ID":"184664303","OBJECT_TYPE":"PAYLOAD","PERIAPSIS":"346.981","CENTER_NAME":"EARTH","NORAD_CAT_ID":"47629","OBJECT_ID":"2021-012K","FILE":"3115005","ARG_OF_PERICENTER":"8.9582","RA_OF_ASC_NODE":"138.4195","COUNTRY_CODE":"US","ELEMENT_SET_NO":"999","MEAN_MOTION_DDOT":"0.0000000000000","MEAN_ANOMALY":"146.8014","EPHEMERIS_TYPE":"0","SEMIMAJOR_AXIS":"6727.843","REF_FRAME":"TEME","MEAN_MOTION_DOT":"0.00043894","BSTAR":"0.00031513000000","LAUNCH_DATE":"2021-02-16","CLASSIFICATION_TYPE":"U","PERIOD":"91.532","SITE":"AFETR","TLE_LINE1":"1 47629U 21012K   21257.00001157  .00043894  00000-0  31513-3 0  9999","INCLINATION":"53.0428"},{"GP_ID":"184664036","OBJECT_TYPE":"PAYLOAD","PERIAPSIS":"545.863","REV_AT_EPOCH":"357","TIME_SYSTEM":"UTC","OBJECT_NAME":"STARLINK-1983","DECAY_DATE":null,"RCS_SIZE":"LARGE","EPOCH":"2021-09-14T00:00:00.999648","MEAN_ELEMENT_THEORY":"SGP4","APOAPSIS":"548.356","MEAN_MOTION":"15.06434063","ECCENTRICITY":"0.00018000","TLE_LINE2":"2 47630  53.0523 203.4790 0001800  66.1036 113.1729 15.06434063  3577","SITE":"AFETR","TLE_LINE1":"1 47630U 21012L   21257.00001157 -.00071708  00000-0 -48393-2 0  9991","INCLINATION":"53.0523","LAUNCH_DATE":"2021-02-16","BSTAR":"-0.00483930000000","CLASSIFICATION_TYPE":"U","PERIOD":"95.590","MEAN_MOTION_DOT":"-0.00071708","MEAN_ANOMALY":"113.1729","EPHEMERIS_TYPE":"0","SEMIMAJOR_AXIS":"6925.244","REF_FRAME":"TEME","COUNTRY_CODE":"US","RA_OF_ASC_NODE":"203.4790","ELEMENT_SET_NO":"999","MEAN_MOTION_DDOT":"0.0000000000000","FILE":"3115005","ARG_OF_PERICENTER":"66.1036","OBJECT_ID":"2021-012L","CENTER_NAME":"EARTH","NORAD_CAT_ID":"47630"},{"OBJECT_ID":"2021-012M","CENTER_NAME":"EARTH","NORAD_CAT_ID":"47631","ELEMENT_SET_NO":"999","RA_OF_ASC_NODE":"138.4324","COUNTRY_CODE":"US","MEAN_MOTION_DDOT":"0.0000000000000","ARG_OF_PERICENTER":"7.6473","FILE":"3115005","MEAN_MOTION_DOT":"-0.00000880","SEMIMAJOR_AXIS":"6727.776","REF_FRAME":"TEME","MEAN_ANOMALY":"143.6863","EPHEMERIS_TYPE":"0","TLE_LINE1":"1 47631U 21012M   21257.00001157 -.00000880  00000-0 -18091-5 0  9990","SITE":"AFETR","INCLINATION":"53.0430","BSTAR":"-0.00000180910000","LAUNCH_DATE":"2021-02-16","PERIOD":"91.531","CLASSIFICATION_TYPE":"U","ECCENTRICITY":"0.00038440","TLE_LINE2":"2 47631  53.0430 138.4324 0003844   7.6473 143.6863 15.73241730  3679","APOAPSIS":"352.227","MEAN_MOTION":"15.73241730","RCS_SIZE":"MEDIUM","EPOCH":"2021-09-14T00:00:00.999648","DECAY_DATE":null,"MEAN_ELEMENT_THEORY":"SGP4","GP_ID":"184662801","PERIAPSIS":"347.055","OBJECT_TYPE":"PAYLOAD","REV_AT_EPOCH":"367","OBJECT_NAME":"STARLINK-1985","TIME_SYSTEM":"UTC"},{"MEAN_ELEMENT_THEORY":"SGP4","RCS_SIZE":"LARGE","EPOCH":"2021-09-14T00:00:00.999648","DECAY_DATE":null,"REV_AT_EPOCH":"367","OBJECT_NAME":"STARLINK-1992","TIME_SYSTEM":"UTC","GP_ID":"184663051","PERIAPSIS":"347.117","OBJECT_TYPE":"PAYLOAD","ECCENTRICITY":"0.00038670","TLE_LINE2":"2 47632  53.0428 138.4192 0003867   3.8452 151.2885 15.73214683  3676","MEAN_MOTION":"15.73214683","APOAPSIS":"352.320","SEMIMAJOR_AXIS":"6727.853","REF_FRAME":"TEME","MEAN_ANOMALY":"151.2885","EPHEMERIS_TYPE":"0","MEAN_MOTION_DOT":"0.00045049","BSTAR":"0.00032332000000","LAUNCH_DATE":"2021-02-16","CLASSIFICATION_TYPE":"U","PERIOD":"91.532","TLE_LINE1":"1 47632U 21012N   21257.00001157  .00045049  00000-0  32332-3 0  9997","SITE":"AFETR","INCLINATION":"53.0428","CENTER_NAME":"EARTH","NORAD_CAT_ID":"47632","OBJECT_ID":"2021-012N","FILE":"3115005","ARG_OF_PERICENTER":"3.8452","ELEMENT_SET_NO":"999","COUNTRY_CODE":"US","RA_OF_ASC_NODE":"138.4192","MEAN_MOTION_DDOT":"0.0000000000000"},{"EPHEMERIS_TYPE":"0","MEAN_ANOMALY":"21.2857","REF_FRAME":"TEME","SEMIMAJOR_AXIS":"6925.306","MEAN_MOTION_DOT":"-0.00018575","BSTAR":"-0.00123090000000","LAUNCH_DATE":"2021-02-16","PERIOD":"95.591","CLASSIFICATION_TYPE":"U","SITE":"AFETR","TLE_LINE1":"1 47633U 21012P   21257.00001157 -.00018575  00000-0 -12309-2 0  9995","INCLINATION":"53.0522","CENTER_NAME":"EARTH","NORAD_CAT_ID":"47633","OBJECT_ID":"2021-012P","ARG_OF_PERICENTER":"62.8324","FILE":"3115005","COUNTRY_CODE":"US","RA_OF_ASC_NODE":"223.4980","ELEMENT_SET_NO":"999","MEAN_MOTION_DDOT":"0.0000000000000","MEAN_ELEMENT_THEORY":"SGP4","DECAY_DATE":null,"RCS_SIZE":"LARGE","EPOCH":"2021-09-14T00:00:00.999648","REV_AT_EPOCH":"357","TIME_SYSTEM":"UTC","OBJECT_NAME":"STARLINK-2009","GP_ID":"184663803","OBJECT_TYPE":"PAYLOAD","PERIAPSIS":"546.065","ECCENTRICITY":"0.00015970","TLE_LINE2":"2 47633  53.0522 223.4980 0001597  62.8324  21.2857 15.06413809  3574","MEAN_MOTION":"15.06413809","APOAPSIS":"548.277"},{"CENTER_NAME":"EARTH","NORAD_CAT_ID":"47634","OBJECT_ID":"2021-012Q","FILE":"3115005","ARG_OF_PERICENTER":"70.2263","ELEMENT_SET_NO":"999","COUNTRY_CODE":"US","RA_OF_ASC_NODE":"223.4965","MEAN_MOTION_DDOT":"0.0000000000000","REF_FRAME":"TEME","SEMIMAJOR_AXIS":"6925.315","MEAN_ANOMALY":"133.9032","EPHEMERIS_TYPE":"0","MEAN_MOTION_DOT":"-0.00017607","BSTAR":"-0.00116570000000","LAUNCH_DATE":"2021-02-16","PERIOD":"95.591","CLASSIFICATION_TYPE":"U","TLE_LINE1":"1 47634U 21012Q   21257.00001157 -.00017607  00000-0 -11657-2 0  9996","SITE":"AFETR","INCLINATION":"53.0538","ECCENTRICITY":"0.00015850","TLE_LINE2":"2 47634  53.0538 223.4965 0001585  70.2263 133.9032 15.06410856  3572","MEAN_MOTION":"15.06410856","APOAPSIS":"548.278","MEAN_ELEMENT_THEORY":"SGP4","RCS_SIZE":"LARGE","EPOCH":"2021-09-14T00:00:00.999648","DECAY_DATE":null,"REV_AT_EPOCH":"357","OBJECT_NAME":"STARLINK-2010","TIME_SYSTEM":"UTC","GP_ID":"184664537","PERIAPSIS":"546.083","OBJECT_TYPE":"PAYLOAD"},{"REV_AT_EPOCH":"367","OBJECT_NAME":"STARLINK-2012","TIME_SYSTEM":"UTC","GP_ID":"184663302","PERIAPSIS":"346.867","OBJECT_TYPE":"PAYLOAD","MEAN_ELEMENT_THEORY":"SGP4","EPOCH":"2021-09-14T00:00:00.999648","RCS_SIZE":"LARGE","DECAY_DATE":null,"MEAN_MOTION":"15.73272670","APOAPSIS":"352.239","ECCENTRICITY":"0.00039930","TLE_LINE2":"2 47635  53.0431 138.4209 0003993   4.6603 152.5113 15.73272670  3677","BSTAR":"-0.00077200000000","LAUNCH_DATE":"2021-02-16","CLASSIFICATION_TYPE":"U","PERIOD":"91.529","TLE_LINE1":"1 47635U 21012R   21257.00001157 -.00108004  00000-0 -77200-3 0  9996","SITE":"AFETR","INCLINATION":"53.0431","SEMIMAJOR_AXIS":"6727.688","REF_FRAME":"TEME","EPHEMERIS_TYPE":"0","MEAN_ANOMALY":"152.5113","MEAN_MOTION_DOT":"-0.00108004","ARG_OF_PERICENTER":"4.6603","FILE":"3115005","ELEMENT_SET_NO":"999","COUNTRY_CODE":"US","RA_OF_ASC_NODE":"138.4209","MEAN_MOTION_DDOT":"0.0000000000000","CENTER_NAME":"EARTH","NORAD_CAT_ID":"47635","OBJECT_ID":"2021-012R"},{"ECCENTRICITY":"0.00059480","TLE_LINE2":"2 47636  53.0526 203.4822 0005948 214.8894  59.2339 15.06412633  3579","MEAN_MOTION":"15.06412633","APOAPSIS":"551.294","MEAN_ELEMENT_THEORY":"SGP4","RCS_SIZE":"LARGE","EPOCH":"2021-09-14T00:00:00.999648","DECAY_DATE":null,"REV_AT_EPOCH":"357","OBJECT_NAME":"STARLINK-2013","TIME_SYSTEM":"UTC","GP_ID":"184663552","PERIAPSIS":"543.056","OBJECT_TYPE":"PAYLOAD","CENTER_NAME":"EARTH","NORAD_CAT_ID":"47636","OBJECT_ID":"2021-012S","ARG_OF_PERICENTER":"214.8894","FILE":"3115005","ELEMENT_SET_NO":"999","COUNTRY_CODE":"US","RA_OF_ASC_NODE":"203.4822","MEAN_MOTION_DDOT":"0.0000000000000","SEMIMAJOR_AXIS":"6925.310","REF_FRAME":"TEME","EPHEMERIS_TYPE":"0","MEAN_ANOMALY":"59.2339","MEAN_MOTION_DOT":"-0.00025943","BSTAR":"-0.00172770000000","LAUNCH_DATE":"2021-02-16","PERIOD":"95.591","CLASSIFICATION_TYPE":"U","TLE_LINE1":"1 47636U 21012S   21257.00001157 -.00025943  00000-0 -17277-2 0  9994","SITE":"AFETR","INCLINATION":"53.0526"},{"MEAN_MOTION":"15.06404610","APOAPSIS":"548.497","TLE_LINE2":"2 47637  53.0529 203.4818 0001874  50.2394  23.9049 15.06404610  3582","ECCENTRICITY":"0.00018740","TIME_SYSTEM":"UTC","OBJECT_NAME":"STARLINK-2014","REV_AT_EPOCH":"358","OBJECT_TYPE":"PAYLOAD","PERIAPSIS":"545.902","GP_ID":"184664304","MEAN_ELEMENT_THEORY":"SGP4","DECAY_DATE":null,"RCS_SIZE":"LARGE","EPOCH":"2021-09-14T00:00:00.999648","ARG_OF_PERICENTER":"50.2394","FILE":"3115005","MEAN_MOTION_DDOT":"0.0000000000000","COUNTRY_CODE":"US","RA_OF_ASC_NODE":"203.4818","ELEMENT_SET_NO":"999","NORAD_CAT_ID":"47637","CENTER_NAME":"EARTH","OBJECT_ID":"2021-012T","PERIOD":"95.592","CLASSIFICATION_TYPE":"U","BSTAR":"-0.00199860000000","LAUNCH_DATE":"2021-02-16","INCLINATION":"53.0529","SITE":"AFETR","TLE_LINE1":"1 47637U 21012T   21257.00001157 -.00029931  00000-0 -19986-2 0  9995","EPHEMERIS_TYPE":"0","MEAN_ANOMALY":"23.9049","REF_FRAME":"TEME","SEMIMAJOR_AXIS":"6925.334","MEAN_MOTION_DOT":"-0.00029931"},{"REV_AT_EPOCH":"367","OBJECT_NAME":"STARLINK-2015","TIME_SYSTEM":"UTC","GP_ID":"184664037","PERIAPSIS":"347.152","OBJECT_TYPE":"PAYLOAD","MEAN_ELEMENT_THEORY":"SGP4","EPOCH":"2021-09-14T00:00:00.999648","RCS_SIZE":"LARGE","DECAY_DATE":null,"MEAN_MOTION":"15.73289785","APOAPSIS":"351.857","ECCENTRICITY":"0.00034970","TLE_LINE2":"2 47638  53.0413 138.4095 0003497   7.9914 144.0385 15.73289785  3675","BSTAR":"-0.00078830000000","LAUNCH_DATE":"2021-02-16","PERIOD":"91.528","CLASSIFICATION_TYPE":"U","TLE_LINE1":"1 47638U 21012U   21257.00001157 -.00110307  00000-0 -78830-3 0  9998","SITE":"AFETR","INCLINATION":"53.0413","SEMIMAJOR_AXIS":"6727.639","REF_FRAME":"TEME","EPHEMERIS_TYPE":"0","MEAN_ANOMALY":"144.0385","MEAN_MOTION_DOT":"-0.00110307","ARG_OF_PERICENTER":"7.9914","FILE":"3115005","ELEMENT_SET_NO":"999","COUNTRY_CODE":"US","RA_OF_ASC_NODE":"138.4095","MEAN_MOTION_DDOT":"0.0000000000000","CENTER_NAME":"EARTH","NORAD_CAT_ID":"47638","OBJECT_ID":"2021-012U"}];
